#dP2020 12  2  0  0  0.00000000      97 __u+U IGS14 FIT  IAC
## 2134 259200.00000000   900.00000000 59185 0.0000000000000
+  120   C01C02C03C04C05C06C07C08C09C10C11C12C13C14C16C19C20
+        C21C22C23C24C25C26C27C28C29C30C32C33C34C35C36C37C38
+        C39C40C43C44C45C46E01E02E03E04E05E07E08E09E11E12E13
+        E14E15E18E19E21E24E25E26E27E30E31E33E36G01G02G03G04
+        G05G06G07G08G09G10G11G12G13G14G15G16G17G18G19G20G21
+        G22G23G24G25G26G27G28G29G30G31G32J01J02J03J07R01R02
+        R03R04R05R07R08R09R12R13R14R15R16R17R18R19R20R21R22
+        R24  0  0  0  0  0  0  0  0  0  0  0  0  0  0  0  0
++        13 13 13 13 13  8  8  9  8  8  7  7 10  8  8  7  7
++         7  7  7  7  7  7  7  8  7  7  8  8  7  8  7  7 10
++         9 10  9  9  8  9  4  4  4  4  4  4  4  4  4  4  4
++         4  4  4  4  4  4  4  4  4  4  4  4  4  3  3  3  3
++         3  3  3  3  3  3  4  3  3  3  3  3  3  3  3  3  4
++         3  3  3  3  3  3  3  3  3  3  3  8  8  8 13  6  5
++         5  5  6  5  5  5  5  6  5  6  6  5  5  6  6  5  6
++         5  0  0  0  0  0  0  0  0  0  0  0  0  0  0  0  0
%c M  cc GPS ccc cccc cccc cccc cccc ccccc ccccc ccccc ccccc
%c cc cc ccc ccc cccc cccc cccc cccc ccccc ccccc ccccc ccccc
%f  1.2500000  1.025000000  0.00000000000  0.000000000000000
%f  0.0000000  0.000000000  0.00000000000  0.000000000000000
%i    0    0    0    0      0      0      0      0         0
%i    0    0    0    0      0      0      0      0         0
/* INFORMATION & ANALYSIS CENTER (IAC)            FINAL DATA
/* S/V CLOCKS ARE ALIGNED TO GNSS TIME                      
/* G:C1WC2W R:C1PC2P E:C1XC5X C:C2IC6I J:C1CC2S             
/* PCV:IGS14_2134 OL/AL:FES2004  NONE     YN ORB:CoN CLK:CoN
*  2020 12 02  8 45  0.00000000
PC01 -34348.468965  24489.172622    309.655348   -682.588356
PC02   4453.132470  41902.698733   -426.929362    699.195111
PC03 -14722.569556  39504.924676  -1230.048763    236.418995
PC04 -39650.842912  14394.343420   -393.111078   -110.578760
PC05  21919.830116  36000.857755   -269.917652   -448.574048
PC06 -23970.707920  26668.813600  22228.775935     27.604534
PC07 -13451.947481  37856.858810  13863.351854    -92.330982
PC08  -7088.653335  20982.618673 -35741.114550   -752.446900
PC09  -7834.684794  26753.663840  31772.993676    899.670890
PC10  -2817.932208  42305.331622    686.401311   -130.666984
PC11    627.267159  15374.655730 -23214.117135   -790.189520
PC12 -18750.092581  13965.387872 -15217.922565    642.312183
PC13   6065.992476  28426.414999 -30338.868906     34.689171
PC14  -1707.979837  26325.906976   9193.621928   -401.334219
PC16 -22287.685748  26867.911289  23579.492076   -621.753691
PC19  -5315.631515 -21631.425112 -16787.359010    639.088201
PC20   7583.713325 -26807.528644  -1363.537084   -911.816547
PC21 -16568.213571  16191.703796 -15562.589605   -740.525758
PC22 -15506.558756  -3745.615458 -22903.613939   -804.725538
PC23  22098.894820  12092.867004 -11991.602973   -901.679074
PC24  -1004.859118  19887.011469  19533.979408   -725.355509
PC25  16027.742517  22302.708317   4871.718906   -847.225456
PC26 -15522.357115   6538.117100  22249.724656    926.161201
PC27  25209.985928  -9762.375918   6939.527883    442.509067
PC28  25682.212088   2488.151374 -10609.230133   -138.967340
PC29 -11637.714705 -12830.683899  21877.212213    319.117267
PC30   9809.007846 -16620.543177  20164.350530    411.791295
PC32  16468.329957 -16259.668942  15596.365265   -883.155362
PC33   5386.038675  21688.285955  16718.361697   -855.872041
PC34  -9134.272616  16667.655069 -20428.363274   -795.722372
PC35 -25641.312415  -1823.785374  10826.002304   -532.733003
PC36 -15340.335723 -22739.926114  -5121.115568   -817.485554
PC37  16128.695244  -5480.032124 -22080.889175   -868.626670
PC38  -4869.260349  24832.169178 -33673.808732    115.431719
PC39 -17375.617351  28494.920782  25681.479678     25.831044
PC40 -10053.058735  40680.809236   5378.238816    106.817475
PC43  11175.159260  13176.147235 -21917.966250   -487.952893
PC44 -24931.577706  10527.908364  -6746.512943    -86.741303
PC45 -22101.270280 -12049.693896  12079.517646 999999.999999
PC46    123.852577 -20253.453368 -19206.054295    518.215041
PE01  11786.902518 -14697.395157 -22827.017860   -994.821132
PE02 -11744.630611  14778.305090  22799.403320    180.643876
PE03 -22112.846342  19436.686820  -3144.839173   -371.445824
PE04   9144.519663 -24112.401472 -14534.412157   -659.605561
PE05 -22278.086902   3286.128924 -19218.178979   -324.650634
PE07   9438.928952  14637.308360  23931.362886   -469.340984
PE08  -8833.950254  24066.109037  14800.201998   6083.167674
PE09  -9558.983346 -14362.580734 -24055.619687   5846.211532
PE11 -20147.897132 -15330.003893  15330.663321   6717.686449
PE12   1089.344174 -16375.653495  24639.565069   5477.604780
PE13  19930.813567  15311.372277 -15623.222279    407.585130
PE14 -19474.643113  -3275.866219  14992.760075  -1245.439719
PE15   -889.742216  16318.288957 -24667.105732    841.060306
PE18  17324.468743  12545.217947 -23351.371295  -1360.712313
PE19  22839.799053 -18068.589998   5302.300090    142.783125
PE21  17704.948573   6536.986449 -22797.437966   -635.058241
PE24 -13138.295210 -24973.043120   8977.892346   -613.779627
PE25 -17722.825608  -6731.466417  22744.959900   -521.402229
PE26  28987.768550   5028.112300   3210.301802   2429.654596
PE27  13491.783548  24571.917725  -9479.327850     80.819633
PE30    754.723368  27874.793351   9901.126523   3377.607679
PE31  -1397.223801 -28065.793575  -9301.518264   -476.163830
PE33  21158.076327  -7737.967463  19209.689064   -463.771822
PE36 -29006.050520  -5322.181415  -2568.465639    473.298719
PG01  21847.242255  14851.619224  -4382.764477    801.051203
PG02  -4181.001929 -17282.709954  20386.351377   -549.551866
PG03  12770.724010  15338.222166  17491.192196    -19.092401
PG04  16476.511937   6375.559770  19847.557477   -160.664013
PG05  -2798.301589 -26300.106630   -950.432315    -27.332900
PG06  11282.905124 -10473.893126  21708.832929     -2.992172
PG07  24185.282316   4543.225864 -10270.713579   -425.831556
PG08   8342.917796  12518.103151 -21876.609263     -1.425273
PG09  23022.238000  -4781.334882  12304.661090   -296.539021
PG10 -11957.213489  14733.549062 -18378.924727     -6.423966
PG11  16733.639821  12709.725516 -16494.437808    -92.699972
PG12 -10132.361001 -18796.971783  15652.942038     32.512241
PG13   2229.784329 -16743.555783 -20603.476349     70.771917
PG14  13575.098137 -12086.223205 -19373.067081     51.118547
PG15 -10993.787514 -11788.752704 -21474.048665   -186.080269
PG16    -87.548990  26273.518702  -1550.414974   -244.566290
PG17  21135.731361 -15468.867567   4747.880715    361.650306
PG18 -23271.203599  -2858.299404 -12540.695662    328.165274
PG19  17630.167800 -16662.552463  10437.381178    -70.713635
PG20 -15656.872745   2088.825498 -21426.714964    525.783403
PG21  17606.330259  16203.596200 -11185.458519     73.778977
PG22  11271.647250  21569.057312  11018.659040   -721.559497
PG23 -14909.839173   3565.864609 -21716.407587    106.442277
PG24 -20238.188413 -15524.394071  -8316.477391      5.671162
PG25 -14923.828515  -5456.430665  21081.697745     32.358297
PG26  -5728.813450  23488.124123  10666.191500      8.028726
PG27  -4396.110513  18051.868441 -18988.556023    -26.129117
PG28  12181.665159 -16018.159888 -16849.763009    648.353523
PG29 -22580.119671   1810.031685  13869.920515   -247.971695
PG30  19264.328309  -4267.596641 -17833.661405   -345.455516
PG31  -9652.813261  12041.449251  21578.416237    -85.054832
PG32 -20228.145803  16602.585265   4084.195883      5.110499
PJ01 -25697.594130  31447.167969  -6847.836689   -335.305745
PJ02 -24767.639106  23932.665045  29262.532215     -0.026147
PJ03 -34526.952662  19539.033357  -9501.238466     -3.814976
PJ07 -25390.753896  33661.598943    -11.409769      0.063082
PR01  14859.274800 -18221.990762   9871.680748     71.449494
PR02   6129.067429 -22077.147934 -11246.008225    456.882552
PR03  -5819.132243 -11307.324750 -22087.988627     26.605516
PR04 -14130.625854   5870.380614 -20387.781671     63.936299
PR05 -14639.504599  19590.195082  -7202.894862     62.168387
PR07   6281.098794  10671.673006  22321.277197    -41.621156
PR08  14253.256574  -5814.737403  20391.518786    -56.011484
PR09   6584.671488  21615.315644  11919.403397     10.836823
PR12   5969.765045 -10593.639125 -22398.523727    184.918837
PR13  -6522.190328 -21372.860352 -12318.846093    -47.408111
PR14 -15233.665644 -19699.914731   5515.615775     58.328095
PR15 -14967.028164  -6582.168246  19602.438126    106.489616
PR16  -5421.980755  11382.334780  22133.672702     -8.760495
PR17 -17119.126674  -7570.779700  17366.024081    378.892660
PR18 -25376.127171   -646.287284   2269.674813     58.234980
PR19 -20791.738078   5848.360259 -13573.423685   -122.085313
PR20  -1900.942133  10310.076723 -23239.091258   -427.927794
PR21  17936.592975   7199.586033 -16621.701675   -170.261106
PR22  25533.788932    215.268212  -1044.222136    -84.816129
PR24    992.947589 -10835.014899  23092.678707     22.601622
EOF
